{"fetched_at":"2026-07-11T06:35:08.468Z","source":"https://celestrak.org/NORAD/elements/gp.php?GROUP=planet&FORMAT=JSON","constellation":"pelican","records":[{"OBJECT_NAME":"PELICAN-1","OBJECT_ID":"2023-174AS","EPOCH":"2026-07-09T06:19:46.621056","CLASSIFICATION_TYPE":"U","MEAN_MOTION":15.72288396,"ECCENTRICITY":0.00015876,"INCLINATION":97.3979,"RA_OF_ASC_NODE":291.9778,"ARG_OF_PERICENTER":140.4897,"MEAN_ANOMALY":219.6482,"EPHEMERIS_TYPE":0,"NORAD_CAT_ID":58296,"ELEMENT_SET_NO":999,"REV_AT_EPOCH":14963,"BSTAR":0.000070985464,"MEAN_MOTION_DOT":0.00009237,"MEAN_MOTION_DDOT":0},{"OBJECT_NAME":"PELICAN-2","OBJECT_ID":"2025-009Y","EPOCH":"2026-07-09T04:38:26.267712","CLASSIFICATION_TYPE":"U","MEAN_MOTION":15.40630366,"ECCENTRICITY":0.00022635,"INCLINATION":97.2213,"RA_OF_ASC_NODE":280.8272,"ARG_OF_PERICENTER":130.4618,"MEAN_ANOMALY":229.6826,"EPHEMERIS_TYPE":0,"NORAD_CAT_ID":62631,"ELEMENT_SET_NO":999,"REV_AT_EPOCH":8294,"BSTAR":0.000002200913,"MEAN_MOTION_DOT":9e-8,"MEAN_MOTION_DDOT":0},{"OBJECT_NAME":"PELICAN-3","OBJECT_ID":"2025-188A","EPOCH":"2026-07-10T03:59:46.596192","CLASSIFICATION_TYPE":"U","MEAN_MOTION":15.40988618,"ECCENTRICITY":0.00017162,"INCLINATION":97.1983,"RA_OF_ASC_NODE":266.9739,"ARG_OF_PERICENTER":106.385,"MEAN_ANOMALY":253.7585,"EPHEMERIS_TYPE":0,"NORAD_CAT_ID":65315,"ELEMENT_SET_NO":999,"REV_AT_EPOCH":4885,"BSTAR":0.0001483582,"MEAN_MOTION_DOT":0.00006031,"MEAN_MOTION_DDOT":0},{"OBJECT_NAME":"PELICAN-4","OBJECT_ID":"2025-188B","EPOCH":"2026-07-10T04:24:51.962400","CLASSIFICATION_TYPE":"U","MEAN_MOTION":15.40957945,"ECCENTRICITY":0.00008706,"INCLINATION":97.1997,"RA_OF_ASC_NODE":267.1461,"ARG_OF_PERICENTER":109.1636,"MEAN_ANOMALY":250.9706,"EPHEMERIS_TYPE":0,"NORAD_CAT_ID":65316,"ELEMENT_SET_NO":999,"REV_AT_EPOCH":4885,"BSTAR":0.00014596694,"MEAN_MOTION_DOT":0.00005927,"MEAN_MOTION_DDOT":0},{"OBJECT_NAME":"PELICAN-5","OBJECT_ID":"2025-276B","EPOCH":"2026-07-10T09:46:29.222688","CLASSIFICATION_TYPE":"U","MEAN_MOTION":15.32115292,"ECCENTRICITY":0.0002252,"INCLINATION":97.4128,"RA_OF_ASC_NODE":266.3707,"ARG_OF_PERICENTER":8.0491,"MEAN_ANOMALY":352.0786,"EPHEMERIS_TYPE":0,"NORAD_CAT_ID":66667,"ELEMENT_SET_NO":999,"REV_AT_EPOCH":3407,"BSTAR":0.00012936,"MEAN_MOTION_DOT":0.00003932,"MEAN_MOTION_DDOT":0},{"OBJECT_NAME":"PELICAN-6","OBJECT_ID":"2025-276AP","EPOCH":"2026-07-10T00:17:20.943744","CLASSIFICATION_TYPE":"U","MEAN_MOTION":15.31167034,"ECCENTRICITY":0.0002626,"INCLINATION":97.3764,"RA_OF_ASC_NODE":266.0205,"ARG_OF_PERICENTER":42.4613,"MEAN_ANOMALY":317.6831,"EPHEMERIS_TYPE":0,"NORAD_CAT_ID":66703,"ELEMENT_SET_NO":999,"REV_AT_EPOCH":3402,"BSTAR":0.00091771,"MEAN_MOTION_DOT":0.00027624,"MEAN_MOTION_DDOT":0},{"OBJECT_NAME":"PELICAN-7","OBJECT_ID":"2026-100AP","EPOCH":"2026-07-08T16:36:52.687872","CLASSIFICATION_TYPE":"U","MEAN_MOTION":15.23481001,"ECCENTRICITY":0.00033143,"INCLINATION":97.3907,"RA_OF_ASC_NODE":87.2405,"ARG_OF_PERICENTER":94.4001,"MEAN_ANOMALY":265.7614,"EPHEMERIS_TYPE":0,"NORAD_CAT_ID":69017,"ELEMENT_SET_NO":999,"REV_AT_EPOCH":1008,"BSTAR":0.000063924856,"MEAN_MOTION_DOT":0.00001454,"MEAN_MOTION_DDOT":0},{"OBJECT_NAME":"PELICAN-9","OBJECT_ID":"2026-100AR","EPOCH":"2026-07-10T08:00:03.000384","CLASSIFICATION_TYPE":"U","MEAN_MOTION":15.21995433,"ECCENTRICITY":0.00019622,"INCLINATION":97.3779,"RA_OF_ASC_NODE":88.7024,"ARG_OF_PERICENTER":21.8654,"MEAN_ANOMALY":123.0815,"EPHEMERIS_TYPE":0,"NORAD_CAT_ID":69019,"ELEMENT_SET_NO":999,"REV_AT_EPOCH":497,"BSTAR":-0.0014855601,"MEAN_MOTION_DOT":-0.00033799,"MEAN_MOTION_DDOT":0}]}
